ONEWEB-0331             
1 49198U 21083N   24267.47658447  .00000082  00000+0  17470-3 0  9992
2 49198  87.9058 101.1965 0001683  74.7009 285.4309 13.18687230148034
ONEWEB-0333             
1 49199U 21083P   24266.94263528  .00000289  00000+0  75555-3 0  9993
2 49199  87.8855  86.0583 0001692  93.0483 267.0840 13.13468294147910
ONEWEB-0334             
1 49200U 21083Q   24266.61675238  .00000127  00000+0  28046-3 0  9999
2 49200  87.9245  40.2946 0002027 129.3781 230.7532 13.20770288154582
ONEWEB-0335             
1 49201U 21083R   24267.47112706  .00000063  00000+0  13770-3 0  9998
2 49201  87.8855  85.9412 0001810  85.4238 274.7098 13.13469580149289
ONEWEB-0336             
1 49202U 21083S   24266.90773362 -.00000197  00000+0 -57334-3 0  9991
2 49202  87.8852  86.0487 0001504  90.7905 269.3397 13.13469598147910
ONEWEB-0337             
1 49203U 21083T   24267.52652723 -.00000208  00000+0 -60345-3 0  9997
2 49203  87.8858  85.9240 0001742  85.5831 274.5497 13.13468766149294
ONEWEB-0338             
1 49204U 21083U   24266.77537372  .00000147  00000+0  33023-3 0  9999
2 49204  87.9250  40.2527 0001982 107.7768 252.3582 13.20772683153339
ONEWEB-0339             
1 49205U 21083V   24266.92834221 -.00000105  00000+0 -32347-3 0  9994
2 49205  87.8858  86.0371 0001742  87.7936 272.3392 13.13464059147898
